{
  "norad_id": 62255,
  "name": "QIANFAN-54",
  "history": [
    {
      "epoch": "2026-03-28T21:11:32.474400",
      "apogee_km": 1069.4520487303416,
      "perigee_km": 1067.6581406047353,
      "latitude_deg": -62.308404729822826,
      "longitude_deg": 130.26941599999554,
      "semi_major_axis_km": 7446.692094667538,
      "eccentricity": 0.00012045,
      "inclination_deg": 89.0092,
      "raan_deg": 30.1891,
      "arg_perigee_deg": 6.8079,
      "mean_anomaly_deg": 353.3089,
      "mean_motion_rev_day": 13.51007209
    },
    {
      "epoch": "2026-03-29T04:18:08.601408",
      "apogee_km": 1069.4259754356517,
      "perigee_km": 1067.6834495749254,
      "latitude_deg": 56.07204560825909,
      "longitude_deg": 158.70955711998977,
      "semi_major_axis_km": 7446.691712505289,
      "eccentricity": 0.000117,
      "inclination_deg": 89.0093,
      "raan_deg": 30.1595,
      "arg_perigee_deg": 6.3719,
      "mean_anomaly_deg": 353.7447,
      "mean_motion_rev_day": 13.51007313
    }
  ]
}